<?xml version="1.0" encoding="UTF-8"?>
<kml xmlns="http://www.opengis.net/kml/2.2">
<Document>

<name>NHC Atlantic Tropical Weather Outlook</name>

<Style id="low">
    <IconStyle>
        <color>ff00ffff</color>
        <scale>1.5</scale>
        <Icon>
            <href>https://maps.google.com/mapfiles/kml/shapes/cross-hairs.png</href>
        </Icon>
    </IconStyle>
    <LineStyle>
        <color>ff00ffff</color>
        <width>3</width>
    </LineStyle>
    <PolyStyle>
        <color>5500ffff</color>
    </PolyStyle>
</Style>

<Style id="medium">
    <IconStyle>
        <color>ff0099e6</color>
        <scale>1.5</scale>
        <Icon>
            <href>https://maps.google.com/mapfiles/kml/shapes/cross-hairs.png</href>
        </Icon>
    </IconStyle>
    <LineStyle>
        <color>ff0099e6</color>
        <width>3</width>
    </LineStyle>
    <PolyStyle>
        <color>550099e6</color>
    </PolyStyle>
</Style>

<Style id="high">
    <IconStyle>
        <color>ff0000e6</color>
        <scale>1.5</scale>
        <Icon>
            <href>https://maps.google.com/mapfiles/kml/shapes/cross-hairs.png</href>
        </Icon>
    </IconStyle>
    <LineStyle>
        <color>ff0000e6</color>
        <width>3</width>
    </LineStyle>
    <PolyStyle>
        <color>550000e6</color>
    </PolyStyle>
</Style>

<Placemark>
    <name>7-Day Formation Chance: 40%</name>
    <description>
        2-Day Probability: 0%
        2-Day Risk: Low
        7-Day Probability: 40%
        7-Day Risk: Medium
    </description>
    <styleUrl>#medium</styleUrl>
    <Polygon>
        <outerBoundaryIs>
            <LinearRing>
                <coordinates>-89.81004899876217,22.638157874586398,0 -89.78450388464648,22.726675941141934,0 -89.76024700889224,22.81602879978942,0 -89.73729977446493,22.906135549316275,0 -89.71568357983324,22.99691528940923,0 -89.69541982886193,23.08828711705695,0 -89.67652992001968,23.18017013194617,0 -89.65903525627198,23.27248343196493,0 -89.6429572378861,23.36514611680002,0 -89.62831726512957,23.458077284339367,0 -89.61513674096773,23.55119603337039,0 -89.60343706566795,23.644421462680498,0 -89.59323963949765,23.737672671057055,0 -89.5845658636236,23.830868757287476,0 -89.57743714011184,23.923928818360423,0 -89.5718748692297,24.01677195486195,0 -89.56790045304336,24.109317265579477,0 -89.56553529092082,24.20148384750172,0 -89.56480078582752,24.29319079941598,0 -89.56571833713144,24.38435722190843,0 -89.56830934689873,24.474902211967674,0 -89.57259521629607,24.564744868381126,0 -89.57859734559094,24.653804289936147,0 -89.5863371368493,24.74199957542021,0 -89.59583599033857,24.829249823620614,0 -89.60711530722557,24.91547413332472,0 -89.62019648867692,25.000591602420684,0 -89.63510093585938,25.084521329695747,0 -89.65185004993975,25.167182414836702,0 -89.67046523118535,25.24849395483227,0 -89.69096788256161,25.328375050268505,0 -89.71337940253727,25.40674479813407,0 -89.73772119407772,25.483522297216382,0 -89.76401465834971,25.558626647202175,0 -89.79228119472128,25.63197694597943,0 -89.82254220615778,25.703492292335568,0 -89.85481909202736,25.773091785058,0 -89.8891332552954,25.84069452203471,0 -89.92550609532992,25.906219602952433,0 -89.96395901329771,25.969586126598585,0 -90.00451341126484,26.030713189961887,0 -90.04719069039794,26.089519893628335,0 -90.09201225006518,26.14592533458665,0 -90.13899915688546,26.199849056788707,0 -90.18814314518988,26.25124922107483,0 -90.23938427786203,26.300152034588848,0 -90.29265735944949,26.34659062925425,0 -90.34789719360049,26.390598139692543,0 -90.4050385821647,26.432207697827153,0 -90.46401632968974,26.47145243558157,0 -90.52476523982386,26.50836548667803,0 -90.58722011531597,26.542979983039913,0 -90.65131575981434,26.575329058389457,0 -90.71698697696729,26.60544584465015,0 -90.78416856952379,26.633363474644796,0 -90.8527953420313,26.659115081196205,0 -90.9228020972389,26.682733798026504,0 -90.99412363789548,26.704252756159917,0 -91.06669476854864,26.72370508931857,0 -91.14045029284665,26.741123930325273,0 -91.21532501263914,26.75654241110351,0 -91.29125373337297,26.769993665375523,0 -91.36817125689788,26.781510825964006,0 -91.44601238686204,26.7911270247925,0 -91.52471192781309,26.798875394683876,0 -91.60420468160066,26.804789068460877,0 -91.6844254527723,26.80890117894637,0 -91.76530904497633,26.81124485986254,0 -91.84679026006233,26.811853242233497,0 -91.92880390347727,26.810759459781366,0 -92.01128477707073,26.80799664532907,0 -92.09416768449097,26.80359793079998,0 -92.17738743028559,26.797596449916398,0 -92.26087881720355,26.790025335500957,0 -92.34457664799379,26.780917718577996,0 -92.42841572720397,26.770306733768905,0 -92.51233085758292,26.75822551299717,0 -92.59625684277898,26.74470718908566,0 -92.68012848644037,26.729784895756495,0 -92.76388059131614,26.713491763134527,0 -92.84744796195378,26.695860926740522,0 -92.93076540020297,26.676925518498024,0 -93.01376771061126,26.65671867033052,0 -93.09638969682692,26.635273515060817,0 -93.17856616159895,26.612623186411042,0 -93.26023190857563,26.588800816304797,0 -93.34132318391772,26.563838667021002,0 -93.42180047770978,26.537754372466452,0 -93.5016443951726,26.51055342749885,0 -93.58083614946861,26.482240960052422,0 -93.65935695376032,26.452822099860157,0 -93.73718802390806,26.422301973957076,0 -93.81431057127577,26.390685710277467,0 -93.8907058117237,26.357978437654936,0 -93.9663549575152,26.32418528402377,0 -94.04123922361117,26.28931137731837,0 -94.11533982317422,26.25336184637223,0 -94.18863797026603,26.216341819119805,0 -94.26111487804906,26.17825642349527,0 -94.33275176148453,26.139110788332346,0 -94.40352983373475,26.09891004156532,0 -94.47343030886157,26.0576593102291,0 -94.54243440092677,26.015363724056783,0 -94.61052332309276,25.972028410982546,0 -94.67767828942141,25.92765849894073,0 -94.74388051397443,25.882259115865622,0 -94.8091112099143,25.835835389691624,0 -94.87335159220214,25.788392450151605,0 -94.93658287310103,25.739935423381212,0 -94.9987862684714,25.690469439113485,0 -95.05994298967715,25.6399996252826,0 -95.12003425257859,25.58853110892369,0 -95.17904127033825,25.53606901976957,0 -95.23694525611859,25.482618485754642,0 -95.29372742488067,25.428184633913872,0 -95.34936898978697,25.372772593080867,0 -95.40385116489927,25.316387492089234,0 -95.45715516337998,25.259034458873316,0 -95.50926219929096,25.20071862046808,0 -95.56015348759325,25.14144510660651,0 -95.60981024055008,25.081219045222895,0 -95.65821367312242,25.0200455633522,0 -95.70534499847281,24.957929790727405,0 -95.75118542976367,24.894876854383483,0 -95.79571618285547,24.83089188225472,0 -95.83891847001127,24.765980004074095,0 -95.88077350529295,24.700146346876522,0 -95.92126250186288,24.63339603949578,0 -95.9603666755815,24.565734209866037,0 -95.9980705113449,24.497170191151554,0 -96.03437869372164,24.427739275447323,0 -96.06930360637625,24.3574866428944,0 -96.1028576455638,24.286457497015988,0 -96.13505320933803,24.214697036838913,0 -96.16590269395408,24.142250465886434,0 -96.1954184974656,24.069162984983905,0 -96.22361301612767,23.995479794956736,0 -96.25049864889343,23.921246098428867,0 -96.2760877920179,23.84650709622565,0 -96.30039284175615,23.7713079891725,0 -96.32342619796054,23.695693979893406,0 -96.34520025598692,23.61971026921367,0 -96.3657274129896,23.543402058858078,0 -96.38502006792169,23.46681455055119,0 -96.40309061613891,23.38999294511848,0 -96.41995145659433,23.3129824442845,0 -96.43561498554305,23.235828249774045,0 -96.45009360013944,23.15857556241241,0 -96.46339969843723,23.081269584823644,0 -96.47554567759084,23.00395551693373,0 -96.48654393385539,22.926678562265977,0 -96.4964068661838,22.84948391984716,0 -96.50514687083131,22.77241679320059,0 -96.51277634495227,22.695522383151626,0 -96.51930768570105,22.618845890525563,0 -96.52475329113139,22.54243251704719,0 -96.52912555839771,22.466327464441065,0 -96.53243688465443,22.3905759353313,0 -96.53469966705586,22.31522312874455,0 -96.5359263027566,22.24031424820413,0 -96.53612918891082,22.16589449363613,0 -96.53532072357245,22.092009067664492,0 -96.53351330299643,22.018703172013943,0 -96.53071932523659,21.946022006610463,0 -96.52695118744725,21.8740107740781,0 -96.52222128678284,21.802714676141534,0 -96.51654202129714,21.732178913626115,0 -96.50992578724521,21.662448687357198,0 -96.5023849817814,21.5935692008581,0 -96.49393200295947,21.52558565315553,0 -96.4845792470345,21.45854324777281,0 -96.47433910126841,21.392487163951614,0 -96.46321790318359,21.32745210652962,0 -96.45120612806028,21.263445280875146,0 -96.43829168091622,21.200469442510894,0 -96.42446246587002,21.13852734336234,0 -96.40970638614073,21.077621736254287,0 -96.39401134674614,21.017755374011415,0 -96.37736525090548,20.958931009458638,0 -96.35975600363656,20.901151396320017,0 -96.3411715090578,20.844419287420294,0 -96.32159967038837,20.788737435584324,0 -96.30102839264612,20.734108592737527,0 -96.27944557994948,20.680535513503287,0 -96.25683913641689,20.628020949807137,0 -96.23319696616693,20.57656765537314,0 -96.20850697331804,20.526178382126773,0 -96.1827570619887,20.476855883792155,0 -96.15593513629739,20.428602912294707,0 -96.1280291003626,20.381422222257868,0 -96.09902685920207,20.335316565607172,0 -96.06891631513571,20.290288695167305,0 -96.03768537408064,20.246341364662385,0 -96.00532193925596,20.203477326017946,0 -95.97181391567955,20.161699332957994,0 -95.93714920657055,20.121010138307383,0 -95.90131571604735,20.081412494890856,0 -95.86430134912786,20.042909155533266,0 -95.8260940099305,20.00550287395862,0 -95.7866816016745,19.969196401193074,0 -95.74605202847823,19.9339924927595,0 -95.70419319625887,19.89989389968389,0 -95.66109300733632,19.866903375690356,0 -95.61673936582895,19.835023674503134,0 -95.571120177654,19.80425754714821,0 -95.52422334513119,19.77460774824914,0 -95.47603677417766,19.746077029731282,0 -95.42654836711336,19.718668145318816,0 -95.37574602985529,19.692383846937105,0 -95.32361766472337,19.6672268892097,0 -95.27015117673534,19.643200023162706,0 -95.215334470909,19.620306003419444,0 -95.15915545046357,19.598547581905507,0 -95.10160201951749,19.577927512344957,0 -95.04266292485397,19.55844861591106,0 -94.98235474277703,19.540116016041452,0 -94.92072758800765,19.522937605186485,0 -94.85783357356047,19.50692144037231,0 -94.7937248115507,19.49207558042383,0 -94.72845341319436,19.478408082367253,0 -94.6620714906067,19.465927004128105,0 -94.59463115770166,19.454640403631856,0 -94.52618452389657,19.444556339703468,0 -94.45678370400464,19.43568286846977,0 -94.3864808074432,19.428028048755607,0 -94.31532794902552,19.42159993848651,0 -94.24337723906825,19.416406595588057,0 -94.17068078968657,19.412456077086404,0 -94.09729071389523,19.409756440907188,0 -94.02325912291008,19.408315744975766,0 -93.9486381297458,19.408142048117156,0 -93.87347984651763,19.409243407357508,0 -93.79783638354218,19.411627879723028,0 -93.72175985563274,19.415303524937883,0 -93.64530237310595,19.42027839912896,0 -93.56851604807707,19.426560560221844,0 -93.4914529935607,19.434158067041324,0 -93.41416532077284,19.443078977512926,0 -93.33670514272808,19.45333134866297,0 -93.25912457064231,19.464923237517553,0 -93.18147571663093,19.477862703800895,0 -93.10381069370845,19.492157804539204,0 -93.02618161399022,19.507816596758687,0 -92.94864058869211,19.52484714018351,0 -92.87123972992947,19.5432574900413,0 -92.79403114981761,19.563055706955424,0 -92.7170669622704,19.584249846153625,0 -92.64039927670512,19.606847967359954,0 -92.56408020703583,19.630858127600675,0 -92.48816186447834,19.656288384801258,0 -92.41269636204737,19.683146795987966,0 -92.3377358109588,19.711441420885023,0 -92.26333232422729,19.741180315619204,0 -92.18953801216941,19.772371539015467,0 -92.1164049895985,19.805023148099963,0 -92.0439853659318,19.83914320169754,0 -91.97233125508325,19.874739756834458,0 -91.9014922204895,19.91181956921787,0 -91.83149280015249,19.95037660979284,0 -91.76234332368534,19.99039758837813,0 -91.69405396062166,20.031869133853604,0 -91.62663487779724,20.074777874199697,0 -91.56009624474581,20.119110438296218,0 -91.49444822830299,20.164853453224453,0 -91.42970099710323,20.211993547864097,0 -91.3658647188816,20.2605173501957,0 -91.30294956227237,20.310411489099067,0 -91.24096569591006,20.36166259075611,0 -91.17992328752962,20.414257285845224,0 -91.11983250396679,20.468182200548256,0 -91.06070351565461,20.523423964644394,0 -91.0025464885295,20.57996920431549,0 -90.94537159212518,20.637804549340615,0 -90.88918899417666,20.696916627700375,0 -90.83400886331827,20.757292067375147,0 -90.77984136638582,20.818917496345534,0 -90.72669667291302,20.88177954349129,0 -90.67458494973556,20.945864835893587,0 -90.62351636548777,21.01116000153297,0 -90.57350108970343,21.077651670188573,0 -90.5245492883189,21.145326468941505,0 -90.47667113086789,21.214171026671693,0 -90.42987678418615,21.284171970460193,0 -90.38417641780734,21.35531592918693,0 -90.33958019946652,21.427589530832336,0 -90.29609829689878,21.500979403376903,0 -90.25374087873848,21.575472175700497,0 -90.2125181127206,21.651054475783553,0 -90.17244016747964,21.727712930707355,0 -90.1335172107506,21.80543417025092,0 -90.09575941026844,21.884204821495473,0 -90.05917693466768,21.964011513320827,0 -90.02377995168331,22.04484087370747,0 -89.98957862994973,22.126679529736634,0 -89.95658313810122,22.209514111187445,0 -89.92480364297364,22.29333124514102,0 -89.89425031320127,22.378117560477165,0 -89.86493331741855,22.463859685176487,0 -89.83686282336049,22.550544247219364,0 -89.81004899876217,22.638157874586398,0</coordinates>
            </LinearRing>
        </outerBoundaryIs>

    </Polygon>
</Placemark>

</Document>
</kml>
